{"fetched_at":"2026-03-29T02:12:04Z","count":15717,"tles":[{"name":"STARLINK-3124","line1":"1 49456U 21104BA  26087.41926296 -.00000779  00000+0 -30915-4 0  9994","line2":"2 49456  53.2172 135.0905 0000796 128.6249 231.4814 15.08830845241605","category":"Starlink"}]}