{
  "norad_id": 49456,
  "name": "STARLINK-3124",
  "history": [
    {
      "epoch": "2026-03-28T10:03:44.319744Z",
      "apogee_km": 540.3222453217677,
      "perigee_km": 539.2204992343986,
      "latitude_deg": -4.021715078120831e-05,
      "longitude_deg": 158.31582432821008,
      "height_km": 541.0119037247367,
      "semi_major_axis_km": 6917.908372278082,
      "eccentricity": 7.963e-05,
      "inclination_deg": 53.2172,
      "raan_deg": 135.0905,
      "arg_perigee_deg": 128.6249,
      "mean_anomaly_deg": 231.4814,
      "mean_motion_rev_day": 15.08830845
    }
  ]
}